ONEWEB-0704             
1 61609U 24188R   25241.15470312 -.00000640  00000+0 -18713-2 0  9995
2 61609  87.8777  94.4505 0000949 115.6161 244.5065 13.10370215 45040
ONEWEB-0705             
1 61610U 24188S   25241.15968214 -.00000744  00000+0 -21682-2 0  9994
2 61610  87.8757  94.4861 0001995 120.2497 239.8828 13.10371829 37217
ONEWEB-0706             
1 61611U 24188T   25241.14476873 -.00000194  00000+0 -59261-3 0  9993
2 61611  87.8756  94.5164 0001328 105.9680 254.1594 13.10366111 45136
ONEWEB-0707             
1 61612U 24188U   25241.15137973 -.00000519  00000+0 -15221-2 0  9998
2 61612  87.8757  94.4811 0001250 102.5875 257.5393 13.10368189 45073
ONEWEB-0708             
1 61613U 24188V   25241.09329005 -.00000514  00000+0 -15077-2 0  9995
2 61613  87.8786  94.5310 0001697 110.4168 249.7141 13.10375008 45048
