[{"OBJECT_NAME":"ONEWEB-0704","OBJECT_ID":"2024-188R","EPOCH":"2025-08-29T03:42:46.349568","MEAN_MOTION":13.10370215,"ECCENTRICITY":9.499e-5,"INCLINATION":87.8777,"RA_OF_ASC_NODE":94.4505,"ARG_OF_PERICENTER":115.6161,"MEAN_ANOMALY":244.5065,"EPHEMERIS_TYPE":0,"CLASSIFICATION_TYPE":"U","NORAD_CAT_ID":61609,"ELEMENT_SET_NO":999,"REV_AT_EPOCH":4504,"BSTAR":-0.0018712953,"MEAN_MOTION_DOT":-6.4e-6,"MEAN_MOTION_DDOT":0},{"OBJECT_NAME":"ONEWEB-0705","OBJECT_ID":"2024-188S","EPOCH":"2025-08-29T03:49:56.536896","MEAN_MOTION":13.10371829,"ECCENTRICITY":0.00019953,"INCLINATION":87.8757,"RA_OF_ASC_NODE":94.4861,"ARG_OF_PERICENTER":120.2497,"MEAN_ANOMALY":239.8828,"EPHEMERIS_TYPE":0,"CLASSIFICATION_TYPE":"U","NORAD_CAT_ID":61610,"ELEMENT_SET_NO":999,"REV_AT_EPOCH":3721,"BSTAR":-0.0021681725,"MEAN_MOTION_DOT":-7.44e-6,"MEAN_MOTION_DDOT":0},{"OBJECT_NAME":"ONEWEB-0706","OBJECT_ID":"2024-188T","EPOCH":"2025-08-29T03:28:28.018272","MEAN_MOTION":13.10366111,"ECCENTRICITY":0.00013284,"INCLINATION":87.8756,"RA_OF_ASC_NODE":94.5164,"ARG_OF_PERICENTER":105.968,"MEAN_ANOMALY":254.1594,"EPHEMERIS_TYPE":0,"CLASSIFICATION_TYPE":"U","NORAD_CAT_ID":61611,"ELEMENT_SET_NO":999,"REV_AT_EPOCH":4513,"BSTAR":-0.00059260637,"MEAN_MOTION_DOT":-1.94e-6,"MEAN_MOTION_DDOT":0},{"OBJECT_NAME":"ONEWEB-0707","OBJECT_ID":"2024-188U","EPOCH":"2025-08-29T03:37:59.208672","MEAN_MOTION":13.10368189,"ECCENTRICITY":0.00012508,"INCLINATION":87.8757,"RA_OF_ASC_NODE":94.4811,"ARG_OF_PERICENTER":102.5875,"MEAN_ANOMALY":257.5393,"EPHEMERIS_TYPE":0,"CLASSIFICATION_TYPE":"U","NORAD_CAT_ID":61612,"ELEMENT_SET_NO":999,"REV_AT_EPOCH":4507,"BSTAR":-0.0015221022,"MEAN_MOTION_DOT":-5.19e-6,"MEAN_MOTION_DDOT":0},{"OBJECT_NAME":"ONEWEB-0708","OBJECT_ID":"2024-188V","EPOCH":"2025-08-29T02:14:20.260320","MEAN_MOTION":13.10375008,"ECCENTRICITY":0.00016974,"INCLINATION":87.8786,"RA_OF_ASC_NODE":94.531,"ARG_OF_PERICENTER":110.4168,"MEAN_ANOMALY":249.7141,"EPHEMERIS_TYPE":0,"CLASSIFICATION_TYPE":"U","NORAD_CAT_ID":61613,"ELEMENT_SET_NO":999,"REV_AT_EPOCH":4504,"BSTAR":-0.0015077208,"MEAN_MOTION_DOT":-5.14e-6,"MEAN_MOTION_DDOT":0}]
